[{"OBJECT_NAME":"TYVAK-0173","OBJECT_ID":"2021-059P","EPOCH":"2026-03-09T20:34:33.037248","MEAN_MOTION":14.81501003,"ECCENTRICITY":0.0009326,"INCLINATION":96.0076,"RA_OF_ASC_NODE":169.9257,"ARG_OF_PERICENTER":18.4576,"MEAN_ANOMALY":341.6978,"EPHEMERIS_TYPE":0,"CLASSIFICATION_TYPE":"U","NORAD_CAT_ID":48892,"ELEMENT_SET_NO":999,"REV_AT_EPOCH":25353,"BSTAR":0.00038359729,"MEAN_MOTION_DOT":2.977e-5,"MEAN_MOTION_DDOT":0},{"OBJECT_NAME":"CZ-6A DEB","OBJECT_ID":"2022-151PZ","EPOCH":"2026-03-09T15:54:05.043168","MEAN_MOTION":14.93335269,"ECCENTRICITY":0.00656982,"INCLINATION":98.627,"RA_OF_ASC_NODE":159.0323,"ARG_OF_PERICENTER":132.4095,"MEAN_ANOMALY":228.2707,"EPHEMERIS_TYPE":0,"CLASSIFICATION_TYPE":"U","NORAD_CAT_ID":54888,"ELEMENT_SET_NO":999,"REV_AT_EPOCH":17691,"BSTAR":0.0034425771,"MEAN_MOTION_DOT":0.00037754,"MEAN_MOTION_DDOT":0}]
